{
  "type": "FeatureCollection",
  "features": [
    {
      "type": "Feature",
      "properties": {
        "norad_id": 66174,
        "name": "HTV-X1",
        "group": "stations",
        "lat": 11.450129088925138,
        "lon": 166.7341596245213,
        "alt_km": 419.4169263988051,
        "timestamp": "2025-12-09T16:56:35.376050+00:00",
        "meta_object_name": "HTV-X1",
        "meta_object_id": "2025-241A",
        "meta_epoch": "2025-12-09T04:29:48.234912",
        "meta_mean_motion": 15.4943846,
        "meta_eccentricity": 0.00033664,
        "meta_inclination": 51.6308,
        "meta_ra_of_asc_node": 160.0685,
        "meta_arg_of_pericenter": 223.6321,
        "meta_mean_anomaly": 136.4401,
        "meta_ephemeris_type": 0,
        "meta_classification_type": "U",
        "meta_norad_cat_id": 66174,
        "meta_element_set_no": 999,
        "meta_rev_at_epoch": 51,
        "meta_bstar": 0.0002526091,
        "meta_mean_motion_dot": 0.00013707,
        "meta_mean_motion_ddot": 0,
        "tle_line1": "1 66174U 25241A   25343.18736383  .00013707  00000+0  25261-3 0  9990",
        "tle_line2": "2 66174  51.6308 160.0685 0003366 223.6321 136.4401 15.49438460   511"
      },
      "geometry": {
        "type": "Point",
        "coordinates": [
          166.7341596245213,
          11.450129088925138
        ]
      }
    },
    {
      "type": "Feature",
      "properties": {
        "norad_id": 66515,
        "name": "SZ-21 MODULE",
        "group": "stations",
        "lat": -36.34409797448615,
        "lon": -89.0543756195649,
        "alt_km": 379.7924022240395,
        "timestamp": "2025-12-09T16:56:35.376060+00:00",
        "meta_object_name": "SZ-21 MODULE",
        "meta_object_id": "2025-246C",
        "meta_epoch": "2025-12-09T05:09:56.835360",
        "meta_mean_motion": 15.62223553,
        "meta_eccentricity": 0.0006283,
        "meta_inclination": 41.4773,
        "meta_ra_of_asc_node": 37.5424,
        "meta_arg_of_pericenter": 241.0117,
        "meta_mean_anomaly": 119.0093,
        "meta_ephemeris_type": 0,
        "meta_classification_type": "U",
        "meta_norad_cat_id": 66515,
        "meta_element_set_no": 999,
        "meta_rev_at_epoch": 389,
        "meta_bstar": 0.00035922,
        "meta_mean_motion_dot": 0.00032371,
        "meta_mean_motion_ddot": 0,
        "tle_line1": "1 66515U 25246C   25343.21524115  .00032371  00000+0  35922-3 0  9999",
        "tle_line2": "2 66515  41.4773  37.5424 0006283 241.0117 119.0093 15.62223553  3898"
      },
      "geometry": {
        "type": "Point",
        "coordinates": [
          -89.0543756195649,
          -36.34409797448615
        ]
      }
    },
    {
      "type": "Feature",
      "properties": {
        "norad_id": 66645,
        "name": "SHENZHOU-22",
        "group": "stations",
        "lat": 7.35470402641378,
        "lon": 43.52681730715016,
        "alt_km": 383.18180183383356,
        "timestamp": "2025-12-09T16:56:35.376071+00:00",
        "meta_object_name": "SHENZHOU-22",
        "meta_object_id": "2025-272A",
        "meta_epoch": "2025-12-09T04:35:44.551104",
        "meta_mean_motion": 15.58940873,
        "meta_eccentricity": 0.00089717,
        "meta_inclination": 41.468,
        "meta_ra_of_asc_node": 38.2458,
        "meta_arg_of_pericenter": 2.1097,
        "meta_mean_anomaly": 357.9778,
        "meta_ephemeris_type": 0,
        "meta_classification_type": "U",
        "meta_norad_cat_id": 66645,
        "meta_element_set_no": 999,
        "meta_rev_at_epoch": 26300,
        "meta_bstar": 0.00038224086,
        "meta_mean_motion_dot": 0.00030369,
        "meta_mean_motion_ddot": 0,
        "tle_line1": "1 66645U 25272A   25343.19148786  .00030369  00000+0  38224-3 0  9998",
        "tle_line2": "2 66645  41.4680  38.2458 0008971   2.1097 357.9778 15.58940873263003"
      },
      "geometry": {
        "type": "Point",
        "coordinates": [
          43.52681730715016,
          7.35470402641378
        ]
      }
    },
    {
      "type": "Feature",
      "properties": {
        "norad_id": 66664,
        "name": "SOYUZ-MS 28",
        "group": "stations",
        "lat": 11.445925234393739,
        "lon": 166.7311991210887,
        "alt_km": 419.4108753872124,
        "timestamp": "2025-12-09T16:56:35.376081+00:00",
        "meta_object_name": "SOYUZ-MS 28",
        "meta_object_id": "2025-275A",
        "meta_epoch": "2025-12-09T10:41:18.358368",
        "meta_mean_motion": 15.49444513,
        "meta_eccentricity": 0.0003352,
        "meta_inclination": 51.6308,
        "meta_ra_of_asc_node": 158.7912,
        "meta_arg_of_pericenter": 224.7147,
        "meta_mean_anomaly": 135.3571,
        "meta_ephemeris_type": 0,
        "meta_classification_type": "U",
        "meta_norad_cat_id": 66664,
        "meta_element_set_no": 999,
        "meta_rev_at_epoch": 193,
        "meta_bstar": 0.00025353,
        "meta_mean_motion_dot": 0.00013761,
        "meta_mean_motion_ddot": 0,
        "tle_line1": "1 66664U 25275A   25343.44535137  .00013761  00000+0  25353-3 0  9996",
        "tle_line2": "2 66664  51.6308 158.7912 0003352 224.7147 135.3571 15.49444513  1934"
      },
      "geometry": {
        "type": "Point",
        "coordinates": [
          166.7311991210887,
          11.445925234393739
        ]
      }
    },
    {
      "type": "Feature",
      "properties": {
        "norad_id": 66906,
        "name": "1998-067XS",
        "group": "stations",
        "lat": 25.860260932572743,
        "lon": -179.95457665102214,
        "alt_km": 415.0895467779892,
        "timestamp": "2025-12-09T16:56:35.376091+00:00",
        "meta_object_name": "1998-067XS",
        "meta_object_id": "1998-067XS",
        "meta_epoch": "2025-12-09T12:09:24.113376",
        "meta_mean_motion": 15.50312686,
        "meta_eccentricity": 0.0003981,
        "meta_inclination": 51.63,
        "meta_ra_of_asc_node": 158.4502,
        "meta_arg_of_pericenter": 188.2752,
        "meta_mean_anomaly": 171.8172,
        "meta_ephemeris_type": 0,
        "meta_classification_type": "U",
        "meta_norad_cat_id": 66906,
        "meta_element_set_no": 999,
        "meta_rev_at_epoch": 111,
        "meta_bstar": 0.00059212,
        "meta_mean_motion_dot": 0.00033864,
        "meta_mean_motion_ddot": 0,
        "tle_line1": "1 66906U 98067XS  25343.50652909  .00033864  00000+0  59212-3 0  9995",
        "tle_line2": "2 66906  51.6300 158.4502 0003981 188.2752 171.8172 15.50312686  1110"
      },
      "geometry": {
        "type": "Point",
        "coordinates": [
          -179.95457665102214,
          25.860260932572743
        ]
      }
    },
    {
      "type": "Feature",
      "properties": {
        "norad_id": 66907,
        "name": "1998-067XT",
        "group": "stations",
        "lat": 31.036066021083606,
        "lon": -174.08164756021114,
        "alt_km": 413.32931702964015,
        "timestamp": "2025-12-09T16:56:35.376101+00:00",
        "meta_object_name": "1998-067XT",
        "meta_object_id": "1998-067XT",
        "meta_epoch": "2025-12-09T12:07:37.113888",
        "meta_mean_motion": 15.50864429,
        "meta_eccentricity": 0.0004804,
        "meta_inclination": 51.6307,
        "meta_ra_of_asc_node": 158.4423,
        "meta_arg_of_pericenter": 208.5081,
        "meta_mean_anomaly": 151.5646,
        "meta_ephemeris_type": 0,
        "meta_classification_type": "U",
        "meta_norad_cat_id": 66907,
        "meta_element_set_no": 999,
        "meta_rev_at_epoch": 111,
        "meta_bstar": 0.0012921,
        "meta_mean_motion_dot": 0.00076342,
        "meta_mean_motion_ddot": 0,
        "tle_line1": "1 66907U 98067XT  25343.50529067  .00076342  00000+0  12921-2 0  9997",
        "tle_line2": "2 66907  51.6307 158.4423 0004804 208.5081 151.5646 15.50864429  1114"
      },
      "geometry": {
        "type": "Point",
        "coordinates": [
          -174.08164756021114,
          31.036066021083606
        ]
      }
    },
    {
      "type": "Feature",
      "properties": {
        "norad_id": 66908,
        "name": "1998-067XU",
        "group": "stations",
        "lat": 31.831331579596927,
        "lon": -173.0938491003246,
        "alt_km": 413.17174795407936,
        "timestamp": "2025-12-09T16:56:35.376111+00:00",
        "meta_object_name": "1998-067XU",
        "meta_object_id": "1998-067XU",
        "meta_epoch": "2025-12-09T12:07:19.625664",
        "meta_mean_motion": 15.50906956,
        "meta_eccentricity": 0.0005005,
        "meta_inclination": 51.6299,
        "meta_ra_of_asc_node": 158.441,
        "meta_arg_of_pericenter": 206.9098,
        "meta_mean_anomaly": 153.1632,
        "meta_ephemeris_type": 0,
        "meta_classification_type": "U",
        "meta_norad_cat_id": 66908,
        "meta_element_set_no": 999,
        "meta_rev_at_epoch": 111,
        "meta_bstar": 0.0012986,
        "meta_mean_motion_dot": 0.0007685,
        "meta_mean_motion_ddot": 0,
        "tle_line1": "1 66908U 98067XU  25343.50508826  .00076850  00000+0  12986-2 0  9993",
        "tle_line2": "2 66908  51.6299 158.4410 0005005 206.9098 153.1632 15.50906956  1110"
      },
      "geometry": {
        "type": "Point",
        "coordinates": [
          -173.0938491003246,
          31.831331579596927
        ]
      }
    }
  ]
}